start=new Date('2023-01-17T00:00:00.000Z').valueOf();
sats=[{"BSTAR":"0.00022359000000","TIME_SYSTEM":"UTC","OBJECT_TYPE":"PAYLOAD","DECAY_DATE":null,"ELEMENT_SET_NO":"999","TLE_LINE1":"1 46162U 20057AX  23016.80117523  .00003050  00000-0  22359-3 0  9994","MEAN_MOTION_DOT":"0.00003050","EPOCH":"2023-01-16T19:13:41.539872","MEAN_ANOMALY":"278.9891","OBJECT_NAME":"STARLINK-1603","OBJECT_ID":"2020-057AX","PERIAPSIS":"545.962","ECCENTRICITY":"0.00018420","REV_AT_EPOCH":"13459","CLASSIFICATION_TYPE":"U","EPHEMERIS_TYPE":"0","REF_FRAME":"TEME","CENTER_NAME":"EARTH","MEAN_MOTION":"15.06392090","NORAD_CAT_ID":"46162","SITE":"AFETR","RCS_SIZE":"LARGE","SEMIMAJOR_AXIS":"6925.373","APOAPSIS":"548.513","GP_ID":"223249085","FILE":"3750956","COUNTRY_CODE":"US","LAUNCH_DATE":"2020-08-18","TLE_LINE2":"2 46162  53.0532  49.6920 0001842  81.1306 278.9891 15.06392090134594","ARG_OF_PERICENTER":"81.1306","MEAN_MOTION_DDOT":"0.0000000000000","INCLINATION":"53.0532","MEAN_ELEMENT_THEORY":"SGP4","RA_OF_ASC_NODE":"49.6920","PERIOD":"95.593"},{"OBJECT_ID":"2020-057AY","PERIAPSIS":"546.059","EPOCH":"2023-01-16T17:35:29.630112","MEAN_ANOMALY":"293.1545","OBJECT_NAME":"STARLINK-1610","CLASSIFICATION_TYPE":"U","ECCENTRICITY":"0.00016220","REV_AT_EPOCH":"13360","TIME_SYSTEM":"UTC","OBJECT_TYPE":"PAYLOAD","DECAY_DATE":null,"BSTAR":"0.00088391000000","ELEMENT_SET_NO":"999","MEAN_MOTION_DOT":"0.00012912","TLE_LINE1":"1 46163U 20057AY  23016.73298183  .00012912  00000-0  88391-3 0  9994","GP_ID":"223249839","FILE":"3750956","COUNTRY_CODE":"US","LAUNCH_DATE":"2020-08-18","SEMIMAJOR_AXIS":"6925.317","APOAPSIS":"548.305","MEAN_ELEMENT_THEORY":"SGP4","RA_OF_ASC_NODE":"30.0123","PERIOD":"95.591","TLE_LINE2":"2 46163  53.0516  30.0123 0001622  66.9615 293.1545 15.06410320133609","MEAN_MOTION_DDOT":"0.0000000000000","ARG_OF_PERICENTER":"66.9615","INCLINATION":"53.0516","REF_FRAME":"TEME","CENTER_NAME":"EARTH","EPHEMERIS_TYPE":"0","SITE":"AFETR","RCS_SIZE":"LARGE","MEAN_MOTION":"15.06410320","NORAD_CAT_ID":"46163"},{"OBJECT_ID":"2020-057AZ","PERIAPSIS":"545.554","OBJECT_NAME":"STARLINK-1612","EPOCH":"2023-01-16T17:30:11.268576","MEAN_ANOMALY":"287.8303","CLASSIFICATION_TYPE":"U","ECCENTRICITY":"0.00023710","REV_AT_EPOCH":"13486","OBJECT_TYPE":"PAYLOAD","DECAY_DATE":null,"TIME_SYSTEM":"UTC","BSTAR":"0.00006150600000","TLE_LINE1":"1 46164U 20057AZ  23016.72929709  .00000635  00000-0  61506-4 0  9998","MEAN_MOTION_DOT":"0.00000635","ELEMENT_SET_NO":"999","LAUNCH_DATE":"2020-08-18","COUNTRY_CODE":"US","FILE":"3750956","GP_ID":"223248089","APOAPSIS":"548.838","SEMIMAJOR_AXIS":"6925.331","PERIOD":"95.592","RA_OF_ASC_NODE":"30.0057","MEAN_ELEMENT_THEORY":"SGP4","TLE_LINE2":"2 46164  53.0560  30.0057 0002371  72.2944 287.8303 15.06405584134869","INCLINATION":"53.0560","MEAN_MOTION_DDOT":"0.0000000000000","ARG_OF_PERICENTER":"72.2944","CENTER_NAME":"EARTH","REF_FRAME":"TEME","EPHEMERIS_TYPE":"0","RCS_SIZE":"LARGE","SITE":"AFETR","NORAD_CAT_ID":"46164","MEAN_MOTION":"15.06405584"},{"OBJECT_ID":"2020-057BA","PERIAPSIS":"492.494","OBJECT_NAME":"STARLINK-1613","EPOCH":"2023-01-16T09:11:16.463616","MEAN_ANOMALY":"196.2671","CLASSIFICATION_TYPE":"U","REV_AT_EPOCH":"13327","ECCENTRICITY":"0.00019630","TIME_SYSTEM":"UTC","DECAY_DATE":null,"OBJECT_TYPE":"PAYLOAD","BSTAR":"0.00425170000000","MEAN_MOTION_DOT":"0.00105443","TLE_LINE1":"1 46165U 20057BA  23016.38282944  .00105443  00000-0  42517-2 0  9996","ELEMENT_SET_NO":"999","COUNTRY_CODE":"US","FILE":"3749606","GP_ID":"223197017","LAUNCH_DATE":"2020-08-18","APOAPSIS":"495.192","SEMIMAJOR_AXIS":"6871.978","RA_OF_ASC_NODE":"51.7623","MEAN_ELEMENT_THEORY":"SGP4","PERIOD":"94.489","TLE_LINE2":"2 46165  53.0602  51.7623 0001963 163.8389 196.2671 15.23983035133278","ARG_OF_PERICENTER":"163.8389","MEAN_MOTION_DDOT":"0.0000000000000","INCLINATION":"53.0602","CENTER_NAME":"EARTH","REF_FRAME":"TEME","EPHEMERIS_TYPE":"0","SITE":"AFETR","RCS_SIZE":"LARGE","MEAN_MOTION":"15.23983035","NORAD_CAT_ID":"46165"},{"CLASSIFICATION_TYPE":"U","ECCENTRICITY":"0.00014110","REV_AT_EPOCH":"13306","OBJECT_ID":"2020-057BB","PERIAPSIS":"546.256","OBJECT_NAME":"STARLINK-1615","MEAN_ANOMALY":"278.6703","EPOCH":"2023-01-16T20:20:02.308416","MEAN_MOTION_DOT":"-0.00003720","TLE_LINE1":"1 46166U 20057BB  23016.84724894 -.00003720  00000-0 -23099-3 0  9995","ELEMENT_SET_NO":"999","OBJECT_TYPE":"PAYLOAD","DECAY_DATE":null,"TIME_SYSTEM":"UTC","BSTAR":"-0.00023099000000","PERIOD":"95.593","RA_OF_ASC_NODE":"69.4908","MEAN_ELEMENT_THEORY":"SGP4","TLE_LINE2":"2 46166  53.0532  69.4908 0001411  81.4446 278.6703 15.06393704133067","MEAN_MOTION_DDOT":"0.0000000000000","INCLINATION":"53.0532","ARG_OF_PERICENTER":"81.4446","LAUNCH_DATE":"2020-08-18","COUNTRY_CODE":"US","FILE":"3750956","GP_ID":"223249585","APOAPSIS":"548.210","SEMIMAJOR_AXIS":"6925.368","RCS_SIZE":"LARGE","SITE":"AFETR","NORAD_CAT_ID":"46166","MEAN_MOTION":"15.06393704","CENTER_NAME":"EARTH","REF_FRAME":"TEME","EPHEMERIS_TYPE":"0"},{"OBJECT_TYPE":"PAYLOAD","DECAY_DATE":null,"TIME_SYSTEM":"UTC","BSTAR":"-0.00021539000000","ELEMENT_SET_NO":"999","TLE_LINE1":"1 46167U 20057BC  23016.86199901 -.00003488  00000-0 -21539-3 0  9991","MEAN_MOTION_DOT":"-0.00003488","PERIAPSIS":"545.578","OBJECT_ID":"2020-057BC","MEAN_ANOMALY":"287.0419","EPOCH":"2023-01-16T20:41:16.714464","OBJECT_NAME":"STARLINK-1626","CLASSIFICATION_TYPE":"U","ECCENTRICITY":"0.00024210","REV_AT_EPOCH":"13306","REF_FRAME":"TEME","CENTER_NAME":"EARTH","EPHEMERIS_TYPE":"0","RCS_SIZE":"LARGE","SITE":"AFETR","NORAD_CAT_ID":"46167","MEAN_MOTION":"15.06386512","LAUNCH_DATE":"2020-08-18","GP_ID":"223249339","FILE":"3750956","COUNTRY_CODE":"US","SEMIMAJOR_AXIS":"6925.390","APOAPSIS":"548.932","PERIOD":"95.593","MEAN_ELEMENT_THEORY":"SGP4","RA_OF_ASC_NODE":"69.4122","TLE_LINE2":"2 46167  53.0570  69.4122 0002421  73.0835 287.0419 15.06386512133066","INCLINATION":"53.0570","MEAN_MOTION_DDOT":"0.0000000000000","ARG_OF_PERICENTER":"73.0835"},{"MEAN_MOTION":"15.06400026","NORAD_CAT_ID":"46168","SITE":"AFETR","RCS_SIZE":"LARGE","EPHEMERIS_TYPE":"0","CENTER_NAME":"EARTH","REF_FRAME":"TEME","MEAN_MOTION_DDOT":"0.0000000000000","TLE_LINE2":"2 46168  53.0544  20.1988 0002477  87.2337 272.8935 15.06400026133733","INCLINATION":"53.0544","ARG_OF_PERICENTER":"87.2337","RA_OF_ASC_NODE":"20.1988","MEAN_ELEMENT_THEORY":"SGP4","PERIOD":"95.592","APOAPSIS":"548.929","SEMIMAJOR_AXIS":"6925.348","COUNTRY_CODE":"US","GP_ID":"223248590","FILE":"3750956","LAUNCH_DATE":"2020-08-18","MEAN_MOTION_DOT":"-0.00003160","TLE_LINE1":"1 46168U 20057BD  23016.70811378 -.00003160  00000-0 -19328-3 0  9994","ELEMENT_SET_NO":"999","BSTAR":"-0.00019328000000","TIME_SYSTEM":"UTC","DECAY_DATE":null,"OBJECT_TYPE":"PAYLOAD","REV_AT_EPOCH":"13373","ECCENTRICITY":"0.00024770","CLASSIFICATION_TYPE":"U","OBJECT_NAME":"STARLINK-1627","EPOCH":"2023-01-16T16:59:41.030592","MEAN_ANOMALY":"272.8935","OBJECT_ID":"2020-057BD","PERIAPSIS":"545.498"},{"OBJECT_TYPE":"PAYLOAD","DECAY_DATE":null,"TIME_SYSTEM":"UTC","BSTAR":"-0.00016599000000","TLE_LINE1":"1 46169U 20057BE  23016.86143748 -.00002697  00000-0 -16599-3 0  9992","MEAN_MOTION_DOT":"-0.00002697","ELEMENT_SET_NO":"999","OBJECT_ID":"2020-057BE","PERIAPSIS":"548.173","OBJECT_NAME":"STARLINK-1628","MEAN_ANOMALY":"287.8390","EPOCH":"2023-01-16T20:40:28.198272","CLASSIFICATION_TYPE":"U","ECCENTRICITY":"0.00022760","REV_AT_EPOCH":"13300","CENTER_NAME":"EARTH","REF_FRAME":"TEME","EPHEMERIS_TYPE":"0","RCS_SIZE":"LARGE","SITE":"AFETR","NORAD_CAT_ID":"46169","MEAN_MOTION":"15.05573008","LAUNCH_DATE":"2020-08-18","COUNTRY_CODE":"US","FILE":"3750956","GP_ID":"223248839","APOAPSIS":"551.326","SEMIMAJOR_AXIS":"6927.884","PERIOD":"95.645","RA_OF_ASC_NODE":"69.6208","MEAN_ELEMENT_THEORY":"SGP4","TLE_LINE2":"2 46169  53.0587  69.6208 0002276  72.2847 287.8390 15.05573008133002","INCLINATION":"53.0587","MEAN_MOTION_DDOT":"0.0000000000000","ARG_OF_PERICENTER":"72.2847"},{"CENTER_NAME":"EARTH","REF_FRAME":"TEME","EPHEMERIS_TYPE":"0","RCS_SIZE":"LARGE","SITE":"AFETR","NORAD_CAT_ID":"46171","MEAN_MOTION":"15.06424703","LAUNCH_DATE":"2020-08-18","COUNTRY_CODE":"US","FILE":"3749606","GP_ID":"223196768","APOAPSIS":"548.463","SEMIMAJOR_AXIS":"6925.273","PERIOD":"95.591","RA_OF_ASC_NODE":"51.6116","MEAN_ELEMENT_THEORY":"SGP4","TLE_LINE2":"2 46171  53.0543  51.6116 0001913  64.9648 295.1539 15.06424703134523","INCLINATION":"53.0543","MEAN_MOTION_DDOT":"0.0000000000000","ARG_OF_PERICENTER":"64.9648","OBJECT_TYPE":"PAYLOAD","DECAY_DATE":null,"TIME_SYSTEM":"UTC","BSTAR":"0.00111470000000","MEAN_MOTION_DOT":"0.00016372","TLE_LINE1":"1 46171U 20057BG  23016.37360263  .00016372  00000-0  11147-2 0  9990","ELEMENT_SET_NO":"999","OBJECT_ID":"2020-057BG","PERIAPSIS":"545.813","OBJECT_NAME":"STARLINK-1633","MEAN_ANOMALY":"295.1539","EPOCH":"2023-01-16T08:57:59.267232","CLASSIFICATION_TYPE":"U","ECCENTRICITY":"0.00019130","REV_AT_EPOCH":"13452"},{"CLASSIFICATION_TYPE":"U","ECCENTRICITY":"0.00025220","REV_AT_EPOCH":"13458","OBJECT_ID":"2020-057BH","PERIAPSIS":"545.502","EPOCH":"2023-01-16T18:52:27.948576","MEAN_ANOMALY":"287.7099","OBJECT_NAME":"STARLINK-1635","ELEMENT_SET_NO":"999","TLE_LINE1":"1 46172U 20057BH  23016.78643459 -.00002685  00000-0 -16140-3 0  9990","MEAN_MOTION_DOT":"-0.00002685","TIME_SYSTEM":"UTC","DECAY_DATE":null,"OBJECT_TYPE":"PAYLOAD","BSTAR":"-0.00016140000000","MEAN_ELEMENT_THEORY":"SGP4","RA_OF_ASC_NODE":"49.7527","PERIOD":"95.593","MEAN_MOTION_DDOT":"0.0000000000000","TLE_LINE2":"2 46172  53.0556  49.7527 0002522  72.4166 287.7099 15.06388442134581","INCLINATION":"53.0556","ARG_OF_PERICENTER":"72.4166","FILE":"3750956","GP_ID":"223249840","COUNTRY_CODE":"US","LAUNCH_DATE":"2020-08-18","SEMIMAJOR_AXIS":"6925.384","APOAPSIS":"548.996","SITE":"AFETR","RCS_SIZE":"LARGE","MEAN_MOTION":"15.06388442","NORAD_CAT_ID":"46172","REF_FRAME":"TEME","CENTER_NAME":"EARTH","EPHEMERIS_TYPE":"0"}];
